CORVUS BC4              
1 43767U 18099K   22248.46432294  .00001906  00000+0  17487-3 0  9991
2 43767  97.6099 311.5166 0011449   7.8963 352.2437 14.95975708204933
MOVE-II                 
1 43780U 18099Y   22248.44030326  .00004400  00000+0  37475-3 0  9995
2 43780  97.6178 314.0330 0012550   6.1131 354.0242 14.98220659205037
SPACEBEE-7              
1 43816U 18099BL  22248.43440594  .00002943  00000+0  25349-3 0  9993
2 43816  97.6201 314.7564 0012596 350.9369   9.1624 14.98040455204623
SPACEBEE-5              
1 43817U 18099BM  22248.42447997  .00011640  00000+0  88633-3 0  9996
2 43817  97.6251 318.1738 0005415 350.3870   9.7251 15.02227624204772
SPACEBEE-6              
1 43818U 18099BN  22248.13150263  .00005922  00000+0  48985-3 0  9994
2 43818  97.6237 315.5002 0010806 353.8425   6.2664 14.99236418204772
SHIELDS 1               
1 43850U 18104B   22248.49015775  .00004210  00000+0  17175-3 0  9990
2 43850  85.0319 359.0904 0012869 339.4180  20.6543 15.24040349206697
STF-1                   
1 43852U 18104D   22248.33449707  .00013539  00000+0  49458-3 0  9994
2 43852  85.0338 359.2546 0011701 351.7931   8.3121 15.27915501206733
ZACUBE-2                
1 43907U 18111AH  22248.58461716  .00008685  00000+0  31140-3 0  9999
2 43907  97.1781 132.0471 0020444 149.6457 275.4918 15.28747619205537
LUME 1                  
1 43908U 18111AJ  22248.57441988  .00012172  00000+0  39881-3 0  9994
2 43908  97.1795 133.8831 0019132 142.4456 217.8126 15.31607691205657
AOBA VELOX-IV           
1 43940U 19003J   22248.05567964  .00032089  00000+0  77631-3 0  9991
2 43940  97.1210 281.7279 0015581 208.4428 151.5971 15.40939456202375
MOVE-IIB                
1 44398U 19038N   22248.57628746  .00009799  00000+0  45515-3 0  9998
2 44398  97.6341 218.7662 0019295 204.6261 155.4059 15.20050176175200
SONATE                  
1 44400U 19038Q   22248.57719144  .00003530  00000+0  19061-3 0  9999
2 44400  97.6452 217.5025 0022070 213.2528 146.7320 15.15202766175060
LUCKY-7                 
1 44406U 19038W   22248.39212368  .00006569  00000+0  34123-3 0  9992
2 44406  97.6456 217.9192 0021332 210.4428 149.5567 15.16248753175079
BEESAT 9                
1 44412U 19038AC  22248.44280182  .00009014  00000+0  44643-3 0  9990
2 44412  97.6425 218.3993 0018616 212.3777 147.6315 15.17859866174821
JAISAT-1                
1 44419U 19038F   22248.40357966  .00009998  00000+0  48826-3 0  9996
2 44419  97.6426 219.2589 0017750 209.4033 150.6203 15.18331432175185
DUCHIFAT-3              
1 44854U 19089C   22248.39837447  .00003891  00000+0  30103-3 0  9995
2 44854  36.9680 346.2455 0007426 157.3427 279.7924 15.01494104149953
EYESAT-NANO             
1 44877U 19092E   22248.46354527  .00013907  00000+0  57841-3 0  9992
2 44877  97.4654  72.3534 0012445  77.9520 282.3111 15.23820598150543
ORBITAL FACTORY 2 (OF-2)
1 45113U 19071C   22248.52550268  .00037616  00000+0  68657-3 0  9990
2 45113  51.6378  24.3344 0008244 106.5187 253.6708 15.49014389145771
M2 PATHFINDER           
1 45727U 20037E   22248.42296762  .00000983  00000+0  10188-3 0  9993
2 45727  97.7408  62.4555 0013454 128.7403 231.5058 14.92187396118757
NETSAT-4                
1 46504U 20068U   22248.56693840  .00002360  00000+0  17615-3 0  9997
2 46504  97.7272 188.2337 0013489  59.6359 300.6214 15.03768474106085
NETSAT-3                
1 46505U 20068V   22248.58467497  .00002881  00000+0  21435-3 0  9990
2 46505  97.7261 188.1626 0012377  61.6376 298.6129 15.03712824106091
NETSAT-1                
1 46506U 20068W   22248.40439655  .00001186  00000+0  91111-4 0  9993
2 46506  97.7277 187.9044 0011422  73.1126 287.1351 15.03646457106066
NETSAT-2                
1 46507U 20068X   22248.34840073  .00001720  00000+0  13011-3 0  9993
2 46507  97.7279 187.8396 0011067  81.3974 278.8501 15.03637775106006
SAI-1 NANOCONNECT-2     
1 47701U 21015C   22248.45929188  .00014484  00000+0  52009-3 0  9991
2 47701  97.4185 325.0602 0011553 164.2912 195.8688 15.28713303 84430
BEESAT-6                
1 47957U 21022AB  22248.51419072  .00006412  00000+0  40333-3 0  9994
2 47957  97.5162 146.5653 0018157 230.1322 255.3880 15.09418926 79876
SMOG-1                  
1 47964U 21022AJ  22248.20180363  .00008806  00000+0  53122-3 0  9995
2 47964  97.5205 147.4768 0016899 217.8538 142.1505 15.10855644 78927
MMSATS-1                
1 47976U 98067SJ  22248.58135815  .00031400  00000+0  35236-3 0  9996
2 47976  51.6399 281.5533 0001796   2.4605 132.7555 15.62355985 82776
BCCSAT-1                
1 48041U 21022AK  22248.29966825  .00006677  00000+0  41462-3 0  9994
2 48041  97.5208 147.0943 0013581 214.3362 145.6991 15.09936991 78885
BEESAT-5                
1 48083U 21022AM  22248.49824395  .00008109  00000+0  50616-3 0  9990
2 48083  97.5156 146.5586 0018391 229.3460 256.2623 15.09616794 79001
BEESAT-7                
1 48084U 21022AN  22248.50642517  .00007295  00000+0  45730-3 0  9993
2 48084  97.5192 146.5708 0018199 229.6654 256.0764 15.09497032 78591
BEESAT-8                
1 48085U 21022AP  22248.51152983  .00005542  00000+0  34966-3 0  9990
2 48085  97.5164 146.5664 0018147 229.1704 256.6881 15.09368422 79155
RAMSAT                  
1 48850U 98067SL  22248.44791667  .00194544  00000+0  78762-3 0  9996
2 48850  51.6335 265.0734 0006355  33.3164 326.8238 15.85177259 69957
BD-28                   
1 48867U 98067SN  22248.40398703  .00725057  26658-3  10892-2 0  9993
2 48867  51.6185 257.7828 0007043  42.3364 317.8190 16.04048507 68790
BINAR-1                 
1 49272U 98067SR  22248.46088448  .00298506  00000+0  97013-3 0  9996
2 49272  51.6262 268.0756 0005659  23.5904 336.5360 15.89383403 52300
HSU-SAT1                
1 53462U 98067UB  22248.49444651  .00037199  00000+0  60905-3 0  9996
2 53462  51.6408 298.4844 0005628 226.6477 133.4045 15.52108328  3750
FUTABA                  
1 53463U 98067UC  22248.17036423  .00046021  00000+0  74497-3 0  9991
2 53463  51.6406 300.0701 0005547 226.3895 133.6635 15.52328462  3707
TUMNANOSAT              
1 53464U 98067UD  22248.36128645  .00052297  00000+0  83715-3 0  9996
2 53464  51.6408 299.0952 0005310 230.2470 129.8053 15.52585384  3738
